OBJECT_NAME,OBJECT_ID,EPOCH,MEAN_MOTION,ECCENTRICITY,INCLINATION,RA_OF_ASC_NODE,ARG_OF_PERICENTER,MEAN_ANOMALY,EPHEMERIS_TYPE,CLASSIFICATION_TYPE,NORAD_CAT_ID,ELEMENT_SET_NO,REV_AT_EPOCH,BSTAR,MEAN_MOTION_DOT,MEAN_MOTION_DDOT
FM-6,2013-058A,2026-07-13T23:10:32.594592,1.00270909,.00013903,0.0142,33.4803,144.8411,344.7900,0,U,39360,999,4634,0,-.21E-6,0
RADUGA-1M 3,2013-062A,2026-07-15T20:22:42.453408,1.00272589,.00019338,6.0293,71.9870,274.3586,287.9980,0,U,39375,999,4639,0,.139E-5,0
SES-8,2013-071A,2026-07-15T20:39:50.516640,1.00269950,.00026514,0.0548,255.7957,219.7796,223.0728,0,U,39460,999,4471,0,-.279E-5,0
INMARSAT 5-F1,2013-073A,2026-07-15T22:13:18.428736,1.00273181,.00002367,0.0163,49.9948,256.8030,22.9220,0,U,39476,999,4586,0,.17E-6,0
TKSAT-1 (TUPAC KATARI),2013-075A,2026-07-15T21:30:30.659616,1.00270370,.00023997,0.0321,230.9280,239.2060,59.0245,0,U,39481,999,4589,0,-.205E-5,0
EXPRESS-AM5,2013-077A,2026-07-15T22:35:23.811648,1.00271863,.00001556,0.0261,287.0334,290.0847,195.5493,0,U,39487,999,4664,0,-.29E-5,0
GSAT-14,2014-001A,2026-07-15T22:16:33.118176,1.00271006,.00019437,0.0151,73.7274,137.5921,130.5449,0,U,39498,999,4566,0,-.87E-6,0
THAICOM 6,2014-002A,2026-07-15T22:17:47.997600,1.00272707,.00042944,0.0504,110.2986,15.2760,221.1345,0,U,39500,999,4574,0,-.132E-5,0
TDRS 12,2014-004A,2026-07-15T21:46:12.607104,1.00272310,.00043218,4.0059,19.5540,203.6525,356.2306,0,U,39504,999,4456,0,-.281E-5,0
ABS-2,2014-006A,2026-07-15T22:16:48.093888,1.00269748,.00033757,0.0206,48.7633,52.3569,241.7738,0,U,39508,999,4556,0,0,0
ATHENA-FIDUS,2014-006B,2026-07-15T22:06:11.611008,1.00271968,.00013217,0.0257,100.0979,18.4917,184.5054,0,U,39509,999,4537,0,.144E-5,0
TURKSAT 4A,2014-007A,2026-07-15T22:07:26.491296,1.00273727,.0001303,0.0940,278.0711,322.2874,67.2694,0,U,39522,999,4525,0,.136E-5,0
EXPRESS-AT1,2014-010A,2026-07-15T22:14:18.333312,1.00309201,.00044267,0.3293,85.2676,56.5194,191.5388,0,U,39612,999,4510,0,-.2E-6,0
EXPRESS-AT2,2014-010B,2026-07-15T22:11:26.107872,1.00271032,.00002121,0.0165,2.9682,17.6683,301.9734,0,U,39613,999,4478,0,.68E-6,0
AMAZONAS 4A,2014-011A,2026-07-15T19:51:38.530656,1.00269368,.00047378,0.0592,194.2305,304.5132,18.8261,0,U,39616,999,4500,0,-.263E-5,0
ASTRA 5B,2014-011B,2026-07-15T22:02:04.506144,1.00268418,.00018878,0.0754,302.6402,178.4839,166.6233,0,U,39617,999,4495,0,.126E-5,0
IRNSS-1B,2014-017A,2026-07-15T17:03:00.572256,1.00275936,.00222843,28.8748,239.9111,191.7753,172.7664,0,U,39635,999,4508,0,.127E-5,0
LUCH-5V,2014-023A,2026-07-15T17:14:28.678272,1.00273438,.00020774,5.2008,69.4407,84.8079,132.6532,0,U,39727,999,4464,0,-.282E-5,0
KAZSAT-3,2014-023B,2026-07-15T22:12:03.547584,1.00270462,.0000174,0.0108,28.7523,255.9757,40.5298,0,U,39728,999,4274,0,.51E-6,0
EUTELSAT 3B,2014-030A,2026-07-15T23:32:02.043744,1.00271144,.00041402,0.0606,3.5287,112.0200,174.3587,0,U,39773,999,4435,0,.9E-7,0
ASIASAT 8 (AMOS-7),2014-046A,2026-07-14T17:37:33.083616,1.00267643,.00013512,0.0176,30.3385,98.4249,173.4815,0,U,40107,999,10242,0,-.34E-5,0
ASIASAT 6,2014-052A,2026-07-14T13:59:11.279616,1.00270746,.00007222,0.0173,47.8834,109.3513,104.9159,0,U,40141,999,4335,0,-.37E-5,0
OPTUS 10,2014-054A,2026-07-15T14:26:38.656320,1.00270591,.0001968,0.0769,308.3732,168.6021,189.1314,0,U,40146,999,4331,0,-.158E-5,0
MEASAT-3B,2014-054B,2026-07-14T07:00:20.406240,1.00269704,.00033445,0.0418,50.4787,18.1485,60.0938,0,U,40147,999,4318,0,-.248E-5,0
HIMAWARI-8,2014-060A,2026-07-15T22:35:31.299936,1.00271236,.00011027,0.0175,14.6307,153.4825,245.2159,0,U,40267,999,4304,0,-.286E-5,0
IRNSS-1C,2014-061A,2026-07-15T15:28:30.794304,1.00272263,.00220715,6.5876,88.3904,5.4974,154.7765,0,U,40269,999,4297,0,-.176E-5,0
INTELSAT 30 (IS-30),2014-062A,2026-07-15T21:28:23.363040,1.00269522,.00014155,0.0195,54.0858,333.0622,133.6241,0,U,40271,999,708,0,-.161E-5,0
ARSAT 1,2014-062B,2026-07-15T22:56:31.523424,1.00272591,.00017899,0.0632,271.9049,196.4599,97.7454,0,U,40272,999,4291,0,-.27E-5,0
EUTELSAT 53A,2014-064A,2026-07-15T22:10:33.691584,1.00272517,.00017114,0.0159,320.7290,241.2278,117.4409,0,U,40277,999,4185,0,.87E-6,0
GSAT-16,2014-078A,2026-07-14T01:42:06.352704,1.00272595,.000726,0.0209,41.7088,51.1336,279.7235,0,U,40332,999,4237,0,0,0
DIRECTV 14,2014-078B,2026-07-15T12:14:38.599872,1.00267237,.000069,0.0110,40.7880,304.5925,32.3918,0,U,40333,999,4232,0,-.135E-5,0
YAMAL 401,2014-082A,2026-07-15T20:38:28.148928,1.00269927,.0000426,0.0162,71.6217,37.3161,224.3323,0,U,40345,999,4220,0,0,0
