FM-6                    
1 39360U 13058A   26194.96565503 -.00000021  00000+0  00000+0 0  9991
2 39360   0.0142  33.4803 0001390 144.8411 344.7900  1.00270909 46349
RADUGA-1M 3             
1 39375U 13062A   26196.84910247  .00000139  00000+0  00000+0 0  9999
2 39375   6.0293  71.9870 0001933 274.3586 287.9980  1.00272589 46391
SES-8                   
1 39460U 13071A   26196.86100135 -.00000279  00000+0  00000+0 0  9999
2 39460   0.0548 255.7957 0002651 219.7796 223.0728  1.00269950 44718
INMARSAT 5-F1           
1 39476U 13073A   26196.92590774  .00000017  00000+0  00000+0 0  9996
2 39476   0.0163  49.9948 0000236 256.8030  22.9220  1.00273181 45862
TKSAT-1 (TUPAC KATARI)  
1 39481U 13075A   26196.89618819 -.00000205  00000+0  00000+0 0  9991
2 39481   0.0321 230.9280 0002399 239.2060  59.0245  1.00270370 45893
EXPRESS-AM5             
1 39487U 13077A   26196.94124782 -.00000290  00000+0  00000+0 0  9990
2 39487   0.0261 287.0334 0000155 290.0847 195.5493  1.00271863 46644
GSAT-14                 
1 39498U 14001A   26196.92816109 -.00000087  00000+0  00000+0 0  9993
2 39498   0.0151  73.7274 0001943 137.5921 130.5449  1.00271006 45661
THAICOM 6               
1 39500U 14002A   26196.92902775 -.00000132  00000+0  00000+0 0  9994
2 39500   0.0504 110.2986 0004294  15.2760 221.1345  1.00272707 45749
TDRS 12                 
1 39504U 14004A   26196.90709036 -.00000281  00000+0  00000+0 0  9998
2 39504   4.0059  19.5540 0004321 203.6525 356.2306  1.00272310 44568
ABS-2                   
1 39508U 14006A   26196.92833442  .00000000  00000+0  00000+0 0  9993
2 39508   0.0206  48.7633 0003375  52.3569 241.7738  1.00269748 45563
ATHENA-FIDUS            
1 39509U 14006B   26196.92096772  .00000144  00000+0  00000+0 0  9990
2 39509   0.0257 100.0979 0001321  18.4917 184.5054  1.00271968 45375
TURKSAT 4A              
1 39522U 14007A   26196.92183439  .00000136  00000+0  00000+0 0  9994
2 39522   0.0940 278.0711 0001303 322.2874  67.2694  1.00273727 45256
EXPRESS-AT1             
1 39612U 14010A   26196.92660108 -.00000020  00000+0  00000+0 0  9994
2 39612   0.3293  85.2676 0004426  56.5194 191.5388  1.00309201 45101
EXPRESS-AT2             
1 39613U 14010B   26196.92460773  .00000068  00000+0  00000+0 0  9992
2 39613   0.0165   2.9682 0000212  17.6683 301.9734  1.00271032 44785
AMAZONAS 4A             
1 39616U 14011A   26196.82752929 -.00000263  00000+0  00000+0 0  9990
2 39616   0.0592 194.2305 0004737 304.5132  18.8261  1.00269368 45006
ASTRA 5B                
1 39617U 14011B   26196.91810771  .00000126  00000+0  00000+0 0  9998
2 39617   0.0754 302.6402 0001887 178.4839 166.6233  1.00268418 44954
IRNSS-1B                
1 39635U 14017A   26196.71042329  .00000127  00000+0  00000+0 0  9999
2 39635  28.8748 239.9111 0022284 191.7753 172.7664  1.00275936 45085
LUCH-5V                 
1 39727U 14023A   26196.71838748 -.00000282  00000+0  00000+0 0  9999
2 39727   5.2008  69.4407 0002077  84.8079 132.6532  1.00273438 44645
KAZSAT-3                
1 39728U 14023B   26196.92504106  .00000051  00000+0  00000+0 0  9994
2 39728   0.0108  28.7523 0000174 255.9757  40.5298  1.00270462 42746
EUTELSAT 3B             
1 39773U 14030A   26196.98057921  .00000009  00000+0  00000+0 0  9999
2 39773   0.0606   3.5287 0004140 112.0200 174.3587  1.00271144 44354
ASIASAT 8 (AMOS-7)      
1 40107U 14046A   26195.73441069 -.00000340  00000+0  00000+0 0  9990
2 40107   0.0176  30.3385 0001351  98.4249 173.4815  1.00267643102423
ASIASAT 6               
1 40141U 14052A   26195.58276944 -.00000370  00000+0  00000+0 0  9999
2 40141   0.0173  47.8834 0000722 109.3513 104.9159  1.00270746 43351
OPTUS 10                
1 40146U 14054A   26196.60183630 -.00000158  00000+0  00000+0 0  9993
2 40146   0.0769 308.3732 0001968 168.6021 189.1314  1.00270591 43316
MEASAT-3B               
1 40147U 14054B   26195.29190285 -.00000248  00000+0  00000+0 0  9992
2 40147   0.0418  50.4787 0003344  18.1485  60.0938  1.00269704 43184
HIMAWARI-8              
1 40267U 14060A   26196.94133449 -.00000286  00000+0  00000+0 0  9996
2 40267   0.0175  14.6307 0001102 153.4825 245.2159  1.00271236 43048
IRNSS-1C                
1 40269U 14061A   26196.64480086 -.00000176  00000+0  00000+0 0  9996
2 40269   6.5876  88.3904 0022071   5.4974 154.7765  1.00272263 42978
INTELSAT 30 (IS-30)     
1 40271U 14062A   26196.89471485 -.00000161  00000+0  00000+0 0  9994
2 40271   0.0195  54.0858 0001415 333.0622 133.6241  1.00269522  7083
ARSAT 1                 
1 40272U 14062B   26196.95592041 -.00000270  00000+0  00000+0 0  9995
2 40272   0.0632 271.9049 0001789 196.4599  97.7454  1.00272591 42917
EUTELSAT 53A            
1 40277U 14064A   26196.92400106  .00000087  00000+0  00000+0 0  9994
2 40277   0.0159 320.7290 0001711 241.2278 117.4409  1.00272517 41855
GSAT-16                 
1 40332U 14078A   26195.07090686  .00000000  00000+0  00000+0 0  9999
2 40332   0.0209  41.7088 0007260  51.1336 279.7235  1.00272595 42379
DIRECTV 14              
1 40333U 14078B   26196.51016898 -.00000135  00000+0  00000+0 0  9993
2 40333   0.0110  40.7880 0000690 304.5925  32.3918  1.00267237 42322
YAMAL 401               
1 40345U 14082A   26196.86004802  .00000000  00000+0  00000+0 0  9991
2 40345   0.0162  71.6217 0000426  37.3161 224.3323  1.00269927 42207
